STARLINK-35905          
1 67048U 25294U   26004.91668981  .00051918  00000+0  12428-2 0  9999
2 67048  43.0002  42.9882 0000785 266.0297 359.8001 15.40672125  3935
STARLINK-35877          
1 67049U 25294V   26004.91668981  .00048946  00000+0  11724-2 0  9995
2 67049  43.0007  43.0789 0001516 250.6322 337.8787 15.40675986  4015
STARLINK-36078          
1 67050U 25294W   26004.46797869  .00048742  00000+0  83105-3 0  9992
2 67050  43.0002  45.4137 0001786 273.5387  86.5269 15.50593787  4921
STARLINK-35706          
1 67051U 25294X   26004.40321920  .00091556  00000+0  15462-2 0  9999
2 67051  43.0004  45.7872 0003079 291.1233  68.9298 15.50613829  4911
STARLINK-35720          
1 67052U 25294Y   26004.59612414  .00083224  00000+0  14085-2 0  9994
2 67052  43.0000  44.6549 0001007 265.2838  94.7907 15.50596070  4944
STARLINK-35739          
1 67053U 25294Z   26004.59577270  .00073101  00000+0  12368-2 0  9990
2 67053  43.0001  44.6519 0002509 246.4148 113.6449 15.50656630  4947
STARLINK-35754          
1 67054U 25294AA  26004.66670139 -.02065302  00000+0 -40943-1 0  9994
2 67054  43.0000  44.2348 0001732 277.4080 120.5486 15.49618441  3784
STARLINK-35790          
1 67055U 25294AB  26003.50003246  .00193555  00000+0  32163-2 0  9990
2 67055  43.0001  51.0490 0002656 273.9627  86.0930 15.50646640  4778
STARLINK-36143          
1 67056U 25294AC  26002.27516508 -.00184142  00000+0 -32411-2 0  9994
2 67056  43.0002  58.1981 0001273 265.4668  94.6047 15.50285346  4583
STARLINK-36141          
1 67057U 25294AD  26002.59755301  .00045612  00000+0  78063-3 0  9996
2 67057  43.0006  56.3183 0001393 271.7628  88.3073 15.50512095  4630
STARLINK-35767          
1 67058U 25294AE  26004.91668981 -.02373703  00000+0 -58102-1 0  9991
2 67058  43.0010  42.8133 0001991 276.3676  61.4654 15.43495663  3829
HULIANWANG DIGUI-119    
1 67059U 25295A   26004.91727655  .00000490  00000+0  27745-3 0  9994
2 67059  50.0040 274.5061 0013884 328.4816  31.5265 14.24628510  3423
