CCSDS_OMM_VERS = 2.0
CREATION_DATE  = 
ORIGINATOR     = 

OBJECT_NAME    = STARLINK-35905
OBJECT_ID      = 2025-294U
CENTER_NAME    = EARTH
REF_FRAME      = TEME
TIME_SYSTEM    = UTC
MEAN_ELEMENT_THEORY = SGP/SGP4

EPOCH          = 2026-01-04T22:00:01.999584
MEAN_MOTION    = 15.40672125
ECCENTRICITY   = .00007859
INCLINATION    = 43.0002
RA_OF_ASC_NODE = 42.9882
ARG_OF_PERICENTER = 266.0297
MEAN_ANOMALY   = 359.8001

EPHEMERIS_TYPE = 0
CLASSIFICATION_TYPE = U
NORAD_CAT_ID   = 67048
ELEMENT_SET_NO = 999
REV_AT_EPOCH   = 393
BSTAR          = .12428378E-2
MEAN_MOTION_DOT = .51918E-3
MEAN_MOTION_DDOT = 0

CCSDS_OMM_VERS = 2.0
CREATION_DATE  = 
ORIGINATOR     = 

OBJECT_NAME    = STARLINK-35877
OBJECT_ID      = 2025-294V
CENTER_NAME    = EARTH
REF_FRAME      = TEME
TIME_SYSTEM    = UTC
MEAN_ELEMENT_THEORY = SGP/SGP4

EPOCH          = 2026-01-04T22:00:01.999584
MEAN_MOTION    = 15.40675986
ECCENTRICITY   = .00015167
INCLINATION    = 43.0007
RA_OF_ASC_NODE = 43.0789
ARG_OF_PERICENTER = 250.6322
MEAN_ANOMALY   = 337.8787

EPHEMERIS_TYPE = 0
CLASSIFICATION_TYPE = U
NORAD_CAT_ID   = 67049
ELEMENT_SET_NO = 999
REV_AT_EPOCH   = 401
BSTAR          = .11723878E-2
MEAN_MOTION_DOT = .48946E-3
MEAN_MOTION_DDOT = 0

CCSDS_OMM_VERS = 2.0
CREATION_DATE  = 
ORIGINATOR     = 

OBJECT_NAME    = STARLINK-36078
OBJECT_ID      = 2025-294W
CENTER_NAME    = EARTH
REF_FRAME      = TEME
TIME_SYSTEM    = UTC
MEAN_ELEMENT_THEORY = SGP/SGP4

EPOCH          = 2026-01-04T11:13:53.358816
MEAN_MOTION    = 15.50593787
ECCENTRICITY   = .00017865
INCLINATION    = 43.0002
RA_OF_ASC_NODE = 45.4137
ARG_OF_PERICENTER = 273.5387
MEAN_ANOMALY   = 86.5269

EPHEMERIS_TYPE = 0
CLASSIFICATION_TYPE = U
NORAD_CAT_ID   = 67050
ELEMENT_SET_NO = 999
REV_AT_EPOCH   = 492
BSTAR          = .8310457E-3
MEAN_MOTION_DOT = .48742E-3
MEAN_MOTION_DDOT = 0

CCSDS_OMM_VERS = 2.0
CREATION_DATE  = 
ORIGINATOR     = 

OBJECT_NAME    = STARLINK-35706
OBJECT_ID      = 2025-294X
CENTER_NAME    = EARTH
REF_FRAME      = TEME
TIME_SYSTEM    = UTC
MEAN_ELEMENT_THEORY = SGP/SGP4

EPOCH          = 2026-01-04T09:40:38.138880
MEAN_MOTION    = 15.50613829
ECCENTRICITY   = .00030793
INCLINATION    = 43.0004
RA_OF_ASC_NODE = 45.7872
ARG_OF_PERICENTER = 291.1233
MEAN_ANOMALY   = 68.9298

EPHEMERIS_TYPE = 0
CLASSIFICATION_TYPE = U
NORAD_CAT_ID   = 67051
ELEMENT_SET_NO = 999
REV_AT_EPOCH   = 491
BSTAR          = .15461789E-2
MEAN_MOTION_DOT = .91556E-3
MEAN_MOTION_DDOT = 0

CCSDS_OMM_VERS = 2.0
CREATION_DATE  = 
ORIGINATOR     = 

OBJECT_NAME    = STARLINK-35720
OBJECT_ID      = 2025-294Y
CENTER_NAME    = EARTH
REF_FRAME      = TEME
TIME_SYSTEM    = UTC
MEAN_ELEMENT_THEORY = SGP/SGP4

EPOCH          = 2026-01-04T14:18:25.125696
MEAN_MOTION    = 15.50596070
ECCENTRICITY   = .0001007
INCLINATION    = 43.0000
RA_OF_ASC_NODE = 44.6549
ARG_OF_PERICENTER = 265.2838
MEAN_ANOMALY   = 94.7907

EPHEMERIS_TYPE = 0
CLASSIFICATION_TYPE = U
NORAD_CAT_ID   = 67052
ELEMENT_SET_NO = 999
REV_AT_EPOCH   = 494
BSTAR          = .14085E-2
MEAN_MOTION_DOT = .83224E-3
MEAN_MOTION_DDOT = 0

CCSDS_OMM_VERS = 2.0
CREATION_DATE  = 
ORIGINATOR     = 

OBJECT_NAME    = STARLINK-35739
OBJECT_ID      = 2025-294Z
CENTER_NAME    = EARTH
REF_FRAME      = TEME
TIME_SYSTEM    = UTC
MEAN_ELEMENT_THEORY = SGP/SGP4

EPOCH          = 2026-01-04T14:17:54.761280
MEAN_MOTION    = 15.50656630
ECCENTRICITY   = .0002509
INCLINATION    = 43.0001
RA_OF_ASC_NODE = 44.6519
ARG_OF_PERICENTER = 246.4148
MEAN_ANOMALY   = 113.6449

EPHEMERIS_TYPE = 0
CLASSIFICATION_TYPE = U
NORAD_CAT_ID   = 67053
ELEMENT_SET_NO = 999
REV_AT_EPOCH   = 494
BSTAR          = .12368E-2
MEAN_MOTION_DOT = .73101E-3
MEAN_MOTION_DDOT = 0

CCSDS_OMM_VERS = 2.0
CREATION_DATE  = 
ORIGINATOR     = 

OBJECT_NAME    = STARLINK-35754
OBJECT_ID      = 2025-294AA
CENTER_NAME    = EARTH
REF_FRAME      = TEME
TIME_SYSTEM    = UTC
MEAN_ELEMENT_THEORY = SGP/SGP4

EPOCH          = 2026-01-04T16:00:03.000096
MEAN_MOTION    = 15.49618441
ECCENTRICITY   = .0001732
INCLINATION    = 43.0000
RA_OF_ASC_NODE = 44.2348
ARG_OF_PERICENTER = 277.4080
MEAN_ANOMALY   = 120.5486

EPHEMERIS_TYPE = 0
CLASSIFICATION_TYPE = U
NORAD_CAT_ID   = 67054
ELEMENT_SET_NO = 999
REV_AT_EPOCH   = 378
BSTAR          = -.40942988E-1
MEAN_MOTION_DOT = -.2065302E-1
MEAN_MOTION_DDOT = 0

CCSDS_OMM_VERS = 2.0
CREATION_DATE  = 
ORIGINATOR     = 

OBJECT_NAME    = STARLINK-35790
OBJECT_ID      = 2025-294AB
CENTER_NAME    = EARTH
REF_FRAME      = TEME
TIME_SYSTEM    = UTC
MEAN_ELEMENT_THEORY = SGP/SGP4

EPOCH          = 2026-01-03T12:00:02.804544
MEAN_MOTION    = 15.50646640
ECCENTRICITY   = .00026561
INCLINATION    = 43.0001
RA_OF_ASC_NODE = 51.0490
ARG_OF_PERICENTER = 273.9627
MEAN_ANOMALY   = 86.0930

EPHEMERIS_TYPE = 0
CLASSIFICATION_TYPE = U
NORAD_CAT_ID   = 67055
ELEMENT_SET_NO = 999
REV_AT_EPOCH   = 477
BSTAR          = .32162955E-2
MEAN_MOTION_DOT = .193555E-2
MEAN_MOTION_DDOT = 0

CCSDS_OMM_VERS = 2.0
CREATION_DATE  = 
ORIGINATOR     = 

OBJECT_NAME    = STARLINK-36143
OBJECT_ID      = 2025-294AC
CENTER_NAME    = EARTH
REF_FRAME      = TEME
TIME_SYSTEM    = UTC
MEAN_ELEMENT_THEORY = SGP/SGP4

EPOCH          = 2026-01-02T06:36:14.262912
MEAN_MOTION    = 15.50285346
ECCENTRICITY   = .0001273
INCLINATION    = 43.0002
RA_OF_ASC_NODE = 58.1981
ARG_OF_PERICENTER = 265.4668
MEAN_ANOMALY   = 94.6047

EPHEMERIS_TYPE = 0
CLASSIFICATION_TYPE = U
NORAD_CAT_ID   = 67056
ELEMENT_SET_NO = 999
REV_AT_EPOCH   = 458
BSTAR          = -.32411E-2
MEAN_MOTION_DOT = -.184142E-2
MEAN_MOTION_DDOT = 0

CCSDS_OMM_VERS = 2.0
CREATION_DATE  = 
ORIGINATOR     = 

OBJECT_NAME    = STARLINK-36141
OBJECT_ID      = 2025-294AD
CENTER_NAME    = EARTH
REF_FRAME      = TEME
TIME_SYSTEM    = UTC
MEAN_ELEMENT_THEORY = SGP/SGP4

EPOCH          = 2026-01-02T14:20:28.580064
MEAN_MOTION    = 15.50512095
ECCENTRICITY   = .0001393
INCLINATION    = 43.0006
RA_OF_ASC_NODE = 56.3183
ARG_OF_PERICENTER = 271.7628
MEAN_ANOMALY   = 88.3073

EPHEMERIS_TYPE = 0
CLASSIFICATION_TYPE = U
NORAD_CAT_ID   = 67057
ELEMENT_SET_NO = 999
REV_AT_EPOCH   = 463
BSTAR          = .7806271E-3
MEAN_MOTION_DOT = .45612E-3
MEAN_MOTION_DDOT = 0

CCSDS_OMM_VERS = 2.0
CREATION_DATE  = 
ORIGINATOR     = 

OBJECT_NAME    = STARLINK-35767
OBJECT_ID      = 2025-294AE
CENTER_NAME    = EARTH
REF_FRAME      = TEME
TIME_SYSTEM    = UTC
MEAN_ELEMENT_THEORY = SGP/SGP4

EPOCH          = 2026-01-04T22:00:01.999584
MEAN_MOTION    = 15.43495663
ECCENTRICITY   = .00019913
INCLINATION    = 43.0010
RA_OF_ASC_NODE = 42.8133
ARG_OF_PERICENTER = 276.3676
MEAN_ANOMALY   = 61.4654

EPHEMERIS_TYPE = 0
CLASSIFICATION_TYPE = U
NORAD_CAT_ID   = 67058
ELEMENT_SET_NO = 999
REV_AT_EPOCH   = 382
BSTAR          = -.58101748E-1
MEAN_MOTION_DOT = -.2373703E-1
MEAN_MOTION_DDOT = 0

CCSDS_OMM_VERS = 2.0
CREATION_DATE  = 
ORIGINATOR     = 

OBJECT_NAME    = HULIANWANG DIGUI-119
OBJECT_ID      = 2025-295A
CENTER_NAME    = EARTH
REF_FRAME      = TEME
TIME_SYSTEM    = UTC
MEAN_ELEMENT_THEORY = SGP/SGP4

EPOCH          = 2026-01-04T22:00:52.693920
MEAN_MOTION    = 14.24628510
ECCENTRICITY   = .00138841
INCLINATION    = 50.0040
RA_OF_ASC_NODE = 274.5061
ARG_OF_PERICENTER = 328.4816
MEAN_ANOMALY   = 31.5265

EPHEMERIS_TYPE = 0
CLASSIFICATION_TYPE = U
NORAD_CAT_ID   = 67059
ELEMENT_SET_NO = 999
REV_AT_EPOCH   = 342
BSTAR          = .27745325E-3
MEAN_MOTION_DOT = .49E-5
MEAN_MOTION_DDOT = 0

